OBJECT_NAME,OBJECT_ID,EPOCH,MEAN_MOTION,ECCENTRICITY,INCLINATION,RA_OF_ASC_NODE,ARG_OF_PERICENTER,MEAN_ANOMALY,EPHEMERIS_TYPE,CLASSIFICATION_TYPE,NORAD_CAT_ID,ELEMENT_SET_NO,REV_AT_EPOCH,BSTAR,MEAN_MOTION_DOT,MEAN_MOTION_DDOT
COSMOS 2058,1990-010A,2026-06-15T03:36:08.969184,15.12000554,.00094428,82.4673,311.3633,8.2003,351.9379,0,U,20465,999,95696,.20972497E-3,.3631E-4,0
SL-14 R/B,1990-010B,2026-06-15T01:51:04.203072,14.83645028,.00192705,82.5016,175.9265,343.4385,16.6198,0,U,20466,999,94292,.35679917E-4,.319E-5,0
SL-14 R/B,1990-018B,2026-06-15T06:08:53.977920,14.82214915,.00173346,82.5210,131.9126,127.6275,232.6516,0,U,20511,999,93703,.37609424E-4,.324E-5,0
HST,1990-037B,2026-06-15T02:55:52.021632,15.30726834,.00018775,28.4718,94.6872,120.6716,239.4066,0,U,20580,999,78825,.18362174E-3,.5845E-4,0
SL-16 R/B,1990-046B,2026-06-15T06:02:16.616544,14.15025889,.00134731,70.9997,93.0133,164.6555,195.4979,0,U,20625,999,86219,.12113429E-3,.187E-5,0
COSMOS 2084,1990-055A,2026-06-14T22:29:05.593056,15.06107862,.000555,62.7909,3.7719,275.4979,84.5489,0,U,20663,999,95096,.1433E-3,.1904E-4,0
SL-6 R/B(2),1990-055D,2026-06-15T01:18:45.823392,15.03996867,.00403062,62.7824,282.6331,4.8452,355.3029,0,U,20666,999,95283,.11277519E-3,.1384E-4,0
SL-8 R/B,1990-078B,2026-06-14T23:34:34.193280,14.92233297,.03514545,82.9001,163.6367,45.9018,317.0555,0,U,20775,999,82379,.52042753E-3,.18479E-3,0
SL-8 R/B,1991-006B,2026-06-15T07:56:11.639328,13.77505744,.00236119,82.9424,97.4147,119.4892,354.4189,0,U,21088,999,77751,.30462611E-4,.46E-6,0
OKEAN-3,1991-039A,2026-06-15T06:39:26.033760,15.05315163,.00142474,82.5158,242.2329,5.2473,354.8901,0,U,21397,999,87971,.15502658E-3,.225E-4,0
COSMOS 2151,1991-042A,2026-06-15T04:37:06.200832,15.00432904,.00138376,82.4960,349.6063,89.9328,270.3482,0,U,21422,999,87781,.12152039E-3,.1558E-4,0
SL-14 R/B,1991-042B,2026-06-15T06:17:42.853920,14.81901358,.00154627,82.4927,128.7006,281.8555,78.0925,0,U,21423,999,86752,.36275684E-4,.311E-5,0
ERS-1,1991-050A,2026-06-15T01:54:36.215712,14.39516896,.00307101,98.7797,186.7260,273.4717,86.2958,0,U,21574,999,82974,.11360307E-3,.309E-5,0
ARIANE 40 R/B,1991-050F,2026-06-15T02:34:41.882016,14.42955960,.00041768,98.1876,214.6053,125.8001,234.3579,0,U,21610,999,83304,.85944038E-4,.246E-5,0
INTERCOSMOS 25,1991-086A,2026-06-14T11:17:45.095712,12.12192313,.14841129,82.6052,251.4538,268.2589,74.8557,0,U,21819,999,50841,.11849233E-3,.594E-5,0
SL-8 R/B,1992-008B,2026-06-15T03:54:28.449792,13.75976392,.00337035,82.9263,195.2927,220.4840,202.3041,0,U,21876,999,72282,.12622306E-3,.138E-5,0
SL-8 R/B,1992-020B,2026-06-15T05:54:34.066368,13.75548629,.0029849,82.9306,81.2990,27.8709,85.9434,0,U,21938,999,71454,.4823012E-4,.62E-6,0
USA 81,1992-023A,2026-06-15T05:58:35.199264,14.32397725,.00027681,85.0076,75.1260,86.2968,273.8541,0,U,21949,999,10875,.4868521E-4,.152E-5,0
COSMOS 2219,1992-076A,2026-06-15T06:44:13.001856,14.14097804,.00165071,71.0577,174.0574,47.2606,312.9903,0,U,22219,999,73217,.14250901E-3,.225E-5,0
SL-16 R/B,1992-076B,2026-06-15T05:11:26.720736,14.16871518,.00146229,71.0004,342.9331,301.2216,231.8829,0,U,22220,999,73564,.73883089E-4,.1E-5,0
COSMOS 2221,1992-080A,2026-06-15T03:11:41.750304,14.96528632,.0013111,82.5031,185.7326,219.5760,140.4506,0,U,22236,999,79536,.10864423E-3,.1262E-4,0
SL-16 R/B,1992-093B,2026-06-15T06:19:43.264416,14.15462138,.00040775,71.0198,159.4296,191.8180,168.2848,0,U,22285,999,72696,-.13164068E-3,-.305E-5,0
COSMOS 2228,1992-094A,2026-06-15T06:48:27.921600,14.97580182,.00170691,82.5174,143.8661,339.0032,21.0488,0,U,22286,999,79066,.15237111E-3,.181E-4,0
SL-16 R/B,1993-016B,2026-06-14T23:03:39.320928,14.15312862,.00103558,71.0084,10.8837,186.6267,173.4721,0,U,22566,999,71593,.19242597E-3,.327E-5,0
COSMOS 2242,1993-024A,2026-06-15T02:36:17.778240,14.96897963,.00155455,82.5180,173.5316,343.6135,16.4583,0,U,22626,999,79496,.13017278E-3,.1523E-4,0
SL-16 R/B,1993-059B,2026-06-15T05:33:08.089632,14.17248084,.00151472,70.9887,165.4281,57.3901,302.8682,0,U,22803,999,69335,.5866397E-4,.71E-6,0
ARIANE 40 R/B,1993-061H,2026-06-15T04:19:44.816448,14.32907143,.00105855,98.4819,233.0790,2.3147,357.8084,0,U,22830,999,70806,.73702449E-4,.158E-5,0
COSMOS 2278,1994-023A,2026-06-15T04:42:10.664064,14.14397516,.00106137,71.0548,331.0911,245.5710,114.4306,0,U,23087,999,65859,.11011338E-3,.164E-5,0
SL-16 R/B,1994-023B,2026-06-15T06:27:47.750688,14.15024103,.00029002,70.9994,225.9591,187.9632,172.1445,0,U,23088,999,65989,.18782523E-3,.316E-5,0
SL-16 R/B,1994-074B,2026-06-14T23:35:41.995680,14.79500681,.00050852,97.6992,192.7959,262.9882,158.2696,0,U,23343,999,70163,.54276561E-4,.357E-5,0
