COSMOS 2058             
1 20465U 90010A   26166.15010381  .00003631  00000+0  20972-3 0  9992
2 20465  82.4673 311.3633 0009442   8.2003 351.9379 15.12000554956966
SL-14 R/B               
1 20466U 90010B   26166.07713198  .00000319  00000+0  35680-4 0  9993
2 20466  82.5016 175.9265 0019270 343.4385  16.6198 14.83645028942924
SL-14 R/B               
1 20511U 90018B   26166.25618030  .00000324  00000+0  37609-4 0  9990
2 20511  82.5210 131.9126 0017334 127.6275 232.6516 14.82214915937034
HST                     
1 20580U 90037B   26166.12212988  .00005845  00000+0  18362-3 0  9992
2 20580  28.4718  94.6872 0001877 120.6716 239.4066 15.30726834788258
SL-16 R/B               
1 20625U 90046B   26166.25158121  .00000187  00000+0  12113-3 0  9996
2 20625  70.9997  93.0133 0013473 164.6555 195.4979 14.15025889862190
COSMOS 2084             
1 20663U 90055A   26165.93687029  .00001904  00000+0  14330-3 0  9997
2 20663  62.7909   3.7719 0005550 275.4979  84.5489 15.06107862950960
SL-6 R/B(2)             
1 20666U 90055D   26166.05469703  .00001384  00000+0  11278-3 0  9991
2 20666  62.7824 282.6331 0040306   4.8452 355.3029 15.03996867952830
SL-8 R/B                
1 20775U 90078B   26165.98234020  .00018479  00000+0  52043-3 0  9998
2 20775  82.9001 163.6367 0351454  45.9018 317.0555 14.92233297823791
SL-8 R/B                
1 21088U 91006B   26166.33069027  .00000046  00000+0  30463-4 0  9995
2 21088  82.9424  97.4147 0023611 119.4892 354.4189 13.77505744777513
OKEAN-3                 
1 21397U 91039A   26166.27738465  .00002250  00000+0  15503-3 0  9992
2 21397  82.5158 242.2329 0014247   5.2473 354.8901 15.05315163879718
COSMOS 2151             
1 21422U 91042A   26166.19243288  .00001558  00000+0  12152-3 0  9997
2 21422  82.4960 349.6063 0013837  89.9328 270.3482 15.00432904877819
SL-14 R/B               
1 21423U 91042B   26166.26230155  .00000311  00000+0  36276-4 0  9995
2 21423  82.4927 128.7006 0015462 281.8555  78.0925 14.81901358867521
ERS-1                   
1 21574U 91050A   26166.07958583  .00000309  00000+0  11360-3 0  9995
2 21574  98.7797 186.7260 0030710 273.4717  86.2958 14.39516896829740
ARIANE 40 R/B           
1 21610U 91050F   26166.10742919  .00000246  00000+0  85944-4 0  9994
2 21610  98.1876 214.6053 0004176 125.8001 234.3579 14.42955960833043
INTERCOSMOS 25          
1 21819U 91086A   26165.47066083  .00000594  00000+0  11849-3 0  9992
2 21819  82.6052 251.4538 1484112 268.2589  74.8557 12.12192313508414
SL-8 R/B                
1 21876U 92008B   26166.16282928  .00000138  00000+0  12622-3 0  9999
2 21876  82.9263 195.2927 0033703 220.4840 202.3041 13.75976392722822
SL-8 R/B                
1 21938U 92020B   26166.24622762  .00000062  00000+0  48230-4 0  9996
2 21938  82.9306  81.2990 0029849  27.8709  85.9434 13.75548629714541
USA 81                  
1 21949U 92023A   26166.24901851  .00000152  00000+0  48685-4 0  9994
2 21949  85.0076  75.1260 0002768  86.2968 273.8541 14.32397725108750
COSMOS 2219             
1 22219U 92076A   26166.28070604  .00000225  00000+0  14251-3 0  9992
2 22219  71.0577 174.0574 0016507  47.2606 312.9903 14.14097804732172
SL-16 R/B               
1 22220U 92076B   26166.21628149  .00000100  00000+0  73883-4 0  9999
2 22220  71.0004 342.9331 0014622 301.2216 231.8829 14.16871518735647
COSMOS 2221             
1 22236U 92080A   26166.13312211  .00001262  00000+0  10864-3 0  9991
2 22236  82.5031 185.7326 0013111 219.5760 140.4506 14.96528632795361
SL-16 R/B               
1 22285U 92093B   26166.26369519 -.00000305  00000+0 -13164-3 0  9991
2 22285  71.0198 159.4296 0004077 191.8180 168.2848 14.15462138726961
COSMOS 2228             
1 22286U 92094A   26166.28365650  .00001810  00000+0  15237-3 0  9990
2 22286  82.5174 143.8661 0017069 339.0032  21.0488 14.97580182790667
SL-16 R/B               
1 22566U 93016B   26165.96087177  .00000327  00000+0  19243-3 0  9998
2 22566  71.0084  10.8837 0010355 186.6267 173.4721 14.15312862715933
COSMOS 2242             
1 22626U 93024A   26166.10853910  .00001523  00000+0  13017-3 0  9999
2 22626  82.5180 173.5316 0015545 343.6135  16.4583 14.96897963794969
SL-16 R/B               
1 22803U 93059B   26166.23134363  .00000071  00000+0  58664-4 0  9997
2 22803  70.9887 165.4281 0015147  57.3901 302.8682 14.17248084693350
ARIANE 40 R/B           
1 22830U 93061H   26166.18037982  .00000158  00000+0  73702-4 0  9999
2 22830  98.4819 233.0790 0010585   2.3147 357.8084 14.32907143708066
COSMOS 2278             
1 23087U 94023A   26166.19595676  .00000164  00000+0  11011-3 0  9994
2 23087  71.0548 331.0911 0010613 245.5710 114.4306 14.14397516658593
SL-16 R/B               
1 23088U 94023B   26166.26930267  .00000316  00000+0  18783-3 0  9994
2 23088  70.9994 225.9591 0002900 187.9632 172.1445 14.15024103659893
SL-16 R/B               
1 23343U 94074B   26165.98312495  .00000357  00000+0  54277-4 0  9993
2 23343  97.6992 192.7959 0005085 262.9882 158.2696 14.79500681701631
